HIMAWARI-8              
1 40267U 14060A   24041.90134212 -.00000280  00000+0  00000+0 0  9992
2 40267   0.0442 241.4606 0001155  91.2924 272.8292  1.00272326 34162
